SAUDISAT 1C (SO-50)     
1 27607U 02058C   26182.99026468  .00000980  00000+0  13277-3 0  9999
2 27607  64.5520  83.1849 0074907 259.7114  99.5540 14.83077510266658
SAUDISAT 2              
1 28371U 04025F   26183.27793994  .00000291  00000+0  76076-4 0  9993
2 28371  98.5511 183.6500 0023503 249.4990 110.3685 14.56692512167947
SAUDISAT 3              
1 31118U 07012B   26183.28714097  .00000310  00000+0  58224-4 0  9990
2 31118  98.1461 133.6981 0014685 174.2060 185.9319 14.71434300 29969
PISAT                   
1 41784U 16059B   26183.26557001  .00001120  00000+0  19777-3 0  9998
2 41784  97.8182 183.0706 0029630 154.6360 205.6309 14.69010551521950
FLYING LAPTOP           
1 42831U 17042G   26183.31634347  .00003550  00000+0  27974-3 0  9997
2 42831  97.4757 338.2726 0019965  73.5736 286.7681 15.01242271488723
SALSAT                  
1 46495U 20068K   26183.25417133  .00008637  00000+0  29987-3 0  9991
2 46495  97.8847 187.2381 0008037 243.7769 116.2645 15.30013367317666
